ASTROCAST-0401          
1 55110U 23001DF  26068.71172895  .00009750  00000+0  37868-3 0  9995
2 55110  97.5547 160.5206 0008142 188.4231 171.6872 15.26258462176022
STARLINK-33548          
1 62280U 24237P   26068.40327894  .00043521  00000+0  15812-2 0  9998
2 62280  42.9960 207.1165 0000491 235.2252 124.8554 15.27590947 71272
